STARLINK-31940          
1 59873U 24098R   26068.55527965  .00000218  00000+0  17422-4 0  9991
2 59873  43.0013 271.1418 0000520 241.0178 119.0622 15.27575351101913
STARLINK-36554          
1 67502U 26012K   26067.71268370  .00032833  00000+0  11969-2 0  9992
2 67502  42.9934 319.8184 0000695 339.2059  20.8765 15.27591469  7619
